{"fetched_at":"2026-03-29T02:12:04Z","count":15717,"tles":[{"name":"YAOGAN-35 05A","line1":"1 53760U 22109A   26085.20373752  .00000135  00000+0  71582-5 0  9991","line2":"2 53760  35.0058 140.7630 0007077 313.5272  46.4854 15.23019279197950","category":"Other"}]}