{
  "norad_id": 53760,
  "name": "YAOGAN-35 05A",
  "history": [
    {
      "epoch": "2026-03-26T04:53:22.921728Z",
      "apogee_km": 501.60495307235124,
      "perigee_km": 491.8742527286058,
      "latitude_deg": -2.1943128574093765e-05,
      "longitude_deg": -116.23879384261126,
      "height_km": 492.2998986763689,
      "semi_major_axis_km": 6874.876602900478,
      "eccentricity": 0.0007077,
      "inclination_deg": 35.0058,
      "raan_deg": 140.763,
      "arg_perigee_deg": 313.5272,
      "mean_anomaly_deg": 46.4854,
      "mean_motion_rev_day": 15.23019279
    }
  ]
}